0 ZHUHAI-1 01
1 42761U 17034D   23029.59579287  .00009915  00000-0  54098-3 0  9996
2 42761  43.0164 163.0212 0012219 289.8258 134.0320 15.14414518310610
0 ZHUHAI-1 02
1 42759U 17034B   23029.58093522  .00008646  00000-0  47550-3 0  9990
2 42759  43.0163 164.4921 0011753 284.6476 178.5843 15.14261391310606
0 ISS (ZARYA)
1 25544U 98067A   23029.56454722  .00017995  00000-0  31937-3 0  9998
2 25544  51.6436 295.1592 0004747 290.2457 131.4928 15.50277466380294
0 XW-2B
1 40911U 15049N   23029.55841779  .00014466  00000-0  61204-3 0  9993
2 40911  97.4937  37.3732 0009826 289.5547 189.9432 15.23262339407223
0 JAS 2
1 24278U 96046B   23029.55024612 -.00000008  00000-0  25687-4 0  9990
2 24278  98.5166  27.0810 0351159  56.6804 306.7446 13.53129421306438
0 XW-2F
1 40910U 15049M   23029.53732373  .00023900  00000-0  85208-3 0  9992
2 40910  97.4705  41.2600 0009150 255.8803 224.8390 15.28865411407647
0 CSS (TIANHE-1)
1 48274U 21035A   23029.49519676  .00015288  00000-0  18101-3 0  9997
2 48274  41.4746 281.4843 0002374  72.5624 292.5103 15.60921278100144
0 FUNCUBE 1
1 39444U 13066AE  23029.47018132  .00005025  00000-0  58147-3 0  9992
2 39444  97.6544 358.7427 0055329  11.9902 348.2615 14.84844415495632
0 XW-2D
1 40907U 15049J   23029.38060252  .00014990  00000-0  63116-3 0  9994
2 40907  97.4948  36.6820 0009766 287.0883 180.2613 15.23416908407317
0 XW-2A
1 40903U 15049E   23029.36530288  .00085089  00000-0  67931-3 0  9995
2 40903  97.1436  94.8219 0005549   1.4284 128.9944 15.70852986414471
0 XW-3 (CAS 9)
1 50466U 21131B   23029.29335935  .00000483  00000-0  17199-3 0  9999
2 50466  98.5629 111.2510 0004713 183.4574 176.6582 14.38648932 57386
0 XW-2C
1 40906U 15049H   23029.28797160  .00012700  00000-0  55375-3 0  9992
2 40906  97.4968  36.3567 0010836 295.3736 185.6442 15.22258898407233
0 OBJECT C
1 54684U 22167C   23029.25566351  .00013804  00000-0  85437-3 0  9990
2 54684  97.5402 168.3869 0015117  90.6805   4.5535 15.09823942  7686
0 AO-91
1 43017U 17073E   23029.24150909  .00005875  00000-0  42749-3 0  9993
2 43017  97.6503 279.1325 0241616 166.8249 193.9431 14.83626125280561
0 TEVEL 4
1 51063U 22002CH  23029.23247999  .00017962  00000-0  86648-3 0  9992
2 51063  97.4557  97.6550 0008847   8.3126  64.5245 15.18714425 57627
0 SAUDISAT 1C
1 27607U 02058C   23029.23094702  .00001514  00000-0  22527-3 0  9992
2 27607  64.5570 330.7621 0079054 251.7001 107.5489 14.76675273 81915
0 LAPAN A2
1 40931U 15052B   23029.20458088  .00001455  00000-0  11255-3 0  9993
2 40931   5.9950 358.4468 0012614 125.9758 234.1960 14.77004493396772
0 AO-95
1 43770U 18099N   23029.17721979  .00004355  00000-0  37378-3 0  9995
2 43770  97.5924  94.4973 0012863 234.4379 125.5645 14.97925826226783
0 TEVEL 7
1 51062U 22002CG  23029.16035207  .00018127  00000-0  87379-3 0  9996
2 51062  97.4554  97.5928 0009036   8.2934  44.0777 15.18737596 57614
0 TEVEL 8
1 50989U 22002F   23029.15832002  .00017992  00000-0  86740-3 0  9990
2 50989  97.4559  97.6119 0009045   8.8255  43.4054 15.18732988 57612
0 TEVEL 5
1 50998U 22002Q   23029.15446039  .00018496  00000-0  87462-3 0  9993
2 50998  97.4536  97.8110 0010304   2.4396  49.5242 15.19389046 57638
0 TEVEL 6
1 50999U 22002R   23029.15326561  .00018490  00000-0  87420-3 0  9999
2 50999  97.4528  97.8056 0010213   3.0523  48.7098 15.19395145 57634
0 TEVEL 1
1 51013U 22002AF  23029.15306289  .00018071  00000-0  87046-3 0  9991
2 51013  97.4540  97.5240 0009195   8.0163  52.9360 15.18761008 57611
0 TEVEL 2
1 51069U 22002CP  23029.14855620  .00018055  00000-0  86901-3 0  9990
2 51069  97.4540  97.5368 0009011   7.4244  53.2226 15.18789458 57617
0 TEVEL 3
1 50988U 22002E   23029.14587361  .00018026  00000-0  86756-3 0  9999
2 50988  97.4535  97.5557 0009165   7.3607  48.8335 15.18791060 57615
0 BREEZE-KM R/B
1 44909U 19096E   23029.13747374  .00000005  00000-0 -29684-4 0  9992
2 44909  82.5190  80.3448 0218064 151.8407 209.4692 12.79717972144426
0 DIWATA 2B
1 43678U 18084H   23029.06538016  .00002082  00000-0  20739-3 0  9990
2 43678  97.9977 170.4931 0008471 261.1894  98.8345 14.92723289231509
0 LILACSAT 2
1 40908U 15049K   23029.01859563  .00006887  00000-0  34567-3 0  9990
2 40908  97.5236  32.6868 0013351 320.1277 114.9106 15.17551587406673
0 XW-2E
1 40909U 15049L   23028.99373414  .00024457  00000-0  85764-3 0  9991
2 40909  97.4612  41.5176 0008120 256.2673 159.1223 15.29408907407806
0 XW-4 (CAS-10)
1 54816U 21035C   23028.97250917  .00167816  00000-0  11987-2 0  9997
2 54816  41.4765 282.7118 0012172 218.6170 141.3799 15.72354244  6445
0 NAYIF 1
1 42017U 17008BX  23028.91534987  .00044853  00000-0  90257-3 0  9991
2 42017  97.2384  97.8145 0003622 144.5312 215.6179 15.46468437331754
0 ES'HAIL 2
1 43700U 18090A   23028.90396453  .00000145  00000-0  00000-0 0  9996
2 43700   0.0229  81.1734 0002294 259.4454 138.4747  1.00270799 15299
0 OSCAR 7
1 07530U 74089B   23028.86757130 -.00000025  00000-0  13182-3 0  9991
2 07530 101.9341  14.6775 0012153 331.3717 142.9167 12.53660585205719
0 AO-92
1 43137U 18004AC  23028.78102728  .00020012  00000-0  57557-3 0  9998
2 43137  97.3452 107.4332 0006019 284.9114  75.1463 15.35810539280843
0 EYESAT A
1 22825U 93061C   23028.71539841  .00000122  00000-0  64844-4 0  9996
2 22825  98.8621  69.2205 0009438 112.8577 247.3602 14.30236949530355
0 UVSQ-SAT
1 47438U 21006AB  23028.65081619  .00012034  00000-0  57149-3 0  9995
2 47438  97.4075  88.1016 0010258 206.7327 153.3380 15.19338346111422
0 NEXUS
1 43937U 19003F   23028.63906944  .00027065  00000-0  70531-3 0  9994
2 43937  97.1079  58.8960 0018830  68.0471 292.2774 15.38645228224491
0 JY1SAT
1 43803U 18099AX  23028.41557220  .00004745  00000-0  39858-3 0  9992
2 43803  97.5941  94.6401 0012700 229.7737 130.2376 14.98723282226745
0 MT-CUBE-2
1 53106U 22080B   22354.08419093 -.00000003  00000-0  00000+0 0  9990
2 53106  70.1702  21.9397 0008914 226.9685 182.2049  6.42557326 10248
